IRIDIUM 36 [-]          
1 24967U 97056C   23251.26505519  .00000489  00000+0  16051-3 0  9997
2 24967  86.3912  85.0209 0001913  84.6283 275.5132 14.36382988359170
IRIDIUM 39 [-]          
1 25042U 97069D   23251.09538494  .00000625  00000+0  16496-3 0  9990
2 25042  86.3924 128.6881 0017009 313.7302  46.2492 14.47338305355421
IRIDIUM 38 [-]          
1 25043U 97069E   23251.08422610  .00000503  00000+0  16368-3 0  9995
2 25043  86.4005 145.6008 0004268  82.3467 277.8214 14.36865156353112
IRIDIUM 42 [-]          
1 25077U 97077A   23250.73319936  .00000473  00000+0  15879-3 0  9990
2 25077  86.4017 151.1219 0002804  82.8598 277.2917 14.35183550348154
IRIDIUM 44 [-]          
1 25078U 97077B   23251.09648591  .00000468  00000+0  14532-3 0  9992
2 25078  86.3976 134.6533 0002942  44.9606 315.1830 14.38964716350495
IRIDIUM 45 [-]          
1 25104U 97082A   23251.00605010  .00016803  00000+0  11066-2 0  9996
2 25104  86.3817 354.2851 0183043 182.4641 177.5709 14.94605507354694
IRIDIUM 24 [-]          
1 25105U 97082B   23251.39290273  .00000690  00000+0  20968-3 0  9999
2 25105  86.3972 354.5877 0013376  61.9920 298.2630 14.40713180350159
IRIDIUM 51 [-]          
1 25262U 98018A   23250.54503226  .00018808  00000+0  10632-2 0  9990
2 25262  86.3989   5.1241 0170029 140.4534 220.9252 15.01413830348727
